start=new Date('2021-08-23T00:00:00.000Z').valueOf();
sats=[{"MEAN_MOTION":"15.06392269","SEMIMAJOR_AXIS":"6925.372","TLE_LINE1":"1 47595U 21009AZ  21234.89747757  .00000542  00000-0  55281-4 0  9994","CENTER_NAME":"EARTH","BSTAR":"0.00005528100000","PERIAPSIS":"546.705","INCLINATION":"53.0567","MEAN_MOTION_DOT":"0.00000542","TLE_LINE2":"2 47595  53.0567 292.7135 0000769  91.8920 268.2157 15.06392269 30342","ELEMENT_SET_NO":"999","RCS_SIZE":"LARGE","GP_ID":"183271256","OBJECT_ID":"2021-009AZ","DECAY_DATE":null,"REV_AT_EPOCH":"3034","MEAN_ANOMALY":"268.2157","COUNTRY_CODE":"US","EPHEMERIS_TYPE":"0","EPOCH":"2021-08-22T21:32:22.062048","SITE":"AFETR","REF_FRAME":"TEME","MEAN_MOTION_DDOT":"0.0000000000000","FILE":"3101563","CLASSIFICATION_TYPE":"U","LAUNCH_DATE":"2021-02-04","ECCENTRICITY":"0.00007690","ARG_OF_PERICENTER":"91.8920","OBJECT_NAME":"STARLINK-2000","NORAD_CAT_ID":"47595","OBJECT_TYPE":"PAYLOAD","TIME_SYSTEM":"UTC","APOAPSIS":"547.770","RA_OF_ASC_NODE":"292.7135","MEAN_ELEMENT_THEORY":"SGP4","PERIOD":"95.593"},{"RA_OF_ASC_NODE":"292.6974","MEAN_ELEMENT_THEORY":"SGP4","PERIOD":"95.591","TIME_SYSTEM":"UTC","OBJECT_TYPE":"PAYLOAD","APOAPSIS":"547.912","ARG_OF_PERICENTER":"70.7915","OBJECT_NAME":"STARLINK-2001","NORAD_CAT_ID":"47596","CLASSIFICATION_TYPE":"U","LAUNCH_DATE":"2021-02-04","ECCENTRICITY":"0.00010680","FILE":"3101563","EPOCH":"2021-08-22T21:37:38.952192","SITE":"AFETR","REF_FRAME":"TEME","MEAN_MOTION_DDOT":"0.0000000000000","REV_AT_EPOCH":"3034","MEAN_ANOMALY":"289.3189","COUNTRY_CODE":"US","EPHEMERIS_TYPE":"0","DECAY_DATE":null,"GP_ID":"183271506","OBJECT_ID":"2021-009BA","TLE_LINE2":"2 47596  53.0555 292.6974 0001068  70.7915 289.3189 15.06413524 30340","MEAN_MOTION_DOT":"0.00000520","ELEMENT_SET_NO":"999","RCS_SIZE":"LARGE","BSTAR":"0.00005377300000","PERIAPSIS":"546.432","INCLINATION":"53.0555","CENTER_NAME":"EARTH","TLE_LINE1":"1 47596U 21009BA  21234.90114528  .00000520  00000-0  53773-4 0  9991","MEAN_MOTION":"15.06413524","SEMIMAJOR_AXIS":"6925.307"},{"LAUNCH_DATE":"2021-02-04","ECCENTRICITY":"0.00004800","CLASSIFICATION_TYPE":"U","FILE":"3101563","REF_FRAME":"TEME","MEAN_MOTION_DDOT":"0.0000000000000","EPOCH":"2021-08-22T21:27:02.756160","SITE":"AFETR","MEAN_ELEMENT_THEORY":"SGP4","PERIOD":"95.592","RA_OF_ASC_NODE":"292.7326","APOAPSIS":"547.563","TIME_SYSTEM":"UTC","OBJECT_TYPE":"PAYLOAD","NORAD_CAT_ID":"47597","OBJECT_NAME":"STARLINK-2002","ARG_OF_PERICENTER":"83.3306","INCLINATION":"53.0556","PERIAPSIS":"546.898","BSTAR":"0.00006176300000","CENTER_NAME":"EARTH","TLE_LINE1":"1 47597U 21009BB  21234.89378190  .00000639  00000-0  61763-4 0  9996","SEMIMAJOR_AXIS":"6925.366","MEAN_MOTION":"15.06394408","COUNTRY_CODE":"US","EPHEMERIS_TYPE":"0","REV_AT_EPOCH":"3034","MEAN_ANOMALY":"276.7738","DECAY_DATE":null,"GP_ID":"183272758","OBJECT_ID":"2021-009BB","RCS_SIZE":"LARGE","ELEMENT_SET_NO":"999","MEAN_MOTION_DOT":"0.00000639","TLE_LINE2":"2 47597  53.0556 292.7326 0000480  83.3306 276.7738 15.06394408 30344"},{"RA_OF_ASC_NODE":"263.1491","PERIOD":"95.592","MEAN_ELEMENT_THEORY":"SGP4","TIME_SYSTEM":"UTC","OBJECT_TYPE":"PAYLOAD","APOAPSIS":"547.498","ARG_OF_PERICENTER":"68.9760","OBJECT_NAME":"STARLINK-2003","NORAD_CAT_ID":"47598","CLASSIFICATION_TYPE":"U","ECCENTRICITY":"0.00003890","LAUNCH_DATE":"2021-02-04","FILE":"3101563","SITE":"AFETR","EPOCH":"2021-08-22T18:30:33.507360","MEAN_MOTION_DDOT":"0.0000000000000","REF_FRAME":"TEME","MEAN_ANOMALY":"291.1271","REV_AT_EPOCH":"3075","COUNTRY_CODE":"US","EPHEMERIS_TYPE":"0","DECAY_DATE":null,"OBJECT_ID":"2021-009BC","GP_ID":"183273009","TLE_LINE2":"2 47598  53.0828 263.1491 0000389  68.9760 291.1271 15.06395218 30751","MEAN_MOTION_DOT":"-0.00000445","RCS_SIZE":"LARGE","ELEMENT_SET_NO":"999","BSTAR":"-0.00001101600000","PERIAPSIS":"546.959","INCLINATION":"53.0828","CENTER_NAME":"EARTH","TLE_LINE1":"1 47598U 21009BC  21234.77122115 -.00000445  00000-0 -11016-4 0  9991","MEAN_MOTION":"15.06395218","SEMIMAJOR_AXIS":"6925.363"},{"ARG_OF_PERICENTER":"41.7278","OBJECT_NAME":"STARLINK-2004","NORAD_CAT_ID":"47599","OBJECT_TYPE":"PAYLOAD","TIME_SYSTEM":"UTC","APOAPSIS":"547.630","RA_OF_ASC_NODE":"253.3118","MEAN_ELEMENT_THEORY":"SGP4","PERIOD":"95.592","EPOCH":"2021-08-22T18:15:57.821760","SITE":"AFETR","REF_FRAME":"TEME","MEAN_MOTION_DDOT":"0.0000000000000","FILE":"3101563","CLASSIFICATION_TYPE":"U","LAUNCH_DATE":"2021-02-04","ECCENTRICITY":"0.00005880","TLE_LINE2":"2 47599  53.0535 253.3118 0000588  41.7278 318.3755 15.06396906 30886","MEAN_MOTION_DOT":"0.00000669","RCS_SIZE":"LARGE","ELEMENT_SET_NO":"999","GP_ID":"183271757","OBJECT_ID":"2021-009BD","DECAY_DATE":null,"REV_AT_EPOCH":"3088","MEAN_ANOMALY":"318.3755","COUNTRY_CODE":"US","EPHEMERIS_TYPE":"0","MEAN_MOTION":"15.06396906","SEMIMAJOR_AXIS":"6925.358","TLE_LINE1":"1 47599U 21009BD  21234.76108590  .00000669  00000-0  63778-4 0  9990","CENTER_NAME":"EARTH","BSTAR":"0.00006377800000","PERIAPSIS":"546.816","INCLINATION":"53.0535"},{"PERIOD":"95.592","MEAN_ELEMENT_THEORY":"SGP4","RA_OF_ASC_NODE":"253.1209","OBJECT_NAME":"STARLINK-2005","NORAD_CAT_ID":"47600","ARG_OF_PERICENTER":"11.1936","APOAPSIS":"553.787","OBJECT_TYPE":"PAYLOAD","TIME_SYSTEM":"UTC","ECCENTRICITY":"0.00095320","LAUNCH_DATE":"2021-02-04","CLASSIFICATION_TYPE":"U","MEAN_MOTION_DDOT":"0.0000000000000","REF_FRAME":"TEME","SITE":"AFETR","EPOCH":"2021-08-22T18:57:04.175424","FILE":"3101563","DECAY_DATE":null,"EPHEMERIS_TYPE":"0","COUNTRY_CODE":"US","MEAN_ANOMALY":"348.9264","REV_AT_EPOCH":"3089","RCS_SIZE":"LARGE","ELEMENT_SET_NO":"999","MEAN_MOTION_DOT":"0.00000824","TLE_LINE2":"2 47600  53.0726 253.1209 0009532  11.1936 348.9264 15.06409115 30892","OBJECT_ID":"2021-009BE","GP_ID":"183272007","CENTER_NAME":"EARTH","PERIAPSIS":"540.584","BSTAR":"0.00007437900000","INCLINATION":"53.0726","SEMIMAJOR_AXIS":"6925.321","MEAN_MOTION":"15.06409115","TLE_LINE1":"1 47600U 21009BE  21234.78963166  .00000824  00000-0  74379-4 0  9995"},{"TLE_LINE1":"1 47601U 21009BF  21234.76477168  .00000702  00000-0  65984-4 0  9993","SEMIMAJOR_AXIS":"6925.386","MEAN_MOTION":"15.06387871","BSTAR":"0.00006598400000","PERIAPSIS":"547.096","INCLINATION":"53.0532","CENTER_NAME":"EARTH","OBJECT_ID":"2021-009BF","GP_ID":"183272258","RCS_SIZE":"LARGE","ELEMENT_SET_NO":"999","TLE_LINE2":"2 47601  53.0532 253.2960 0000223  54.2933 305.8076 15.06387871 30882","MEAN_MOTION_DOT":"0.00000702","COUNTRY_CODE":"US","EPHEMERIS_TYPE":"0","MEAN_ANOMALY":"305.8076","REV_AT_EPOCH":"3088","DECAY_DATE":null,"FILE":"3101563","MEAN_MOTION_DDOT":"0.0000000000000","REF_FRAME":"TEME","SITE":"AFETR","EPOCH":"2021-08-22T18:21:16.273152","ECCENTRICITY":"0.00002230","LAUNCH_DATE":"2021-02-04","CLASSIFICATION_TYPE":"U","APOAPSIS":"547.405","TIME_SYSTEM":"UTC","OBJECT_TYPE":"PAYLOAD","OBJECT_NAME":"STARLINK-2006","NORAD_CAT_ID":"47601","ARG_OF_PERICENTER":"54.2933","PERIOD":"95.593","MEAN_ELEMENT_THEORY":"SGP4","RA_OF_ASC_NODE":"253.2960"},{"MEAN_MOTION":"15.06402477","SEMIMAJOR_AXIS":"6925.341","TLE_LINE1":"1 47602U 21009BG  21234.85229733  .00000487  00000-0  51561-4 0  9993","CENTER_NAME":"EARTH","BSTAR":"0.00005156100000","PERIAPSIS":"547.097","INCLINATION":"53.0495","MEAN_MOTION_DOT":"0.00000487","TLE_LINE2":"2 47602  53.0495 262.9282 0000158 170.9522 189.1470 15.06402477 30759","ELEMENT_SET_NO":"999","RCS_SIZE":"LARGE","OBJECT_ID":"2021-009BG","GP_ID":"183272509","DECAY_DATE":null,"MEAN_ANOMALY":"189.1470","REV_AT_EPOCH":"3075","EPHEMERIS_TYPE":"0","COUNTRY_CODE":"US","SITE":"AFETR","EPOCH":"2021-08-22T20:27:18.489312","MEAN_MOTION_DDOT":"0.0000000000000","REF_FRAME":"TEME","FILE":"3101563","CLASSIFICATION_TYPE":"U","ECCENTRICITY":"0.00001580","LAUNCH_DATE":"2021-02-04","ARG_OF_PERICENTER":"170.9522","NORAD_CAT_ID":"47602","OBJECT_NAME":"STARLINK-2007","OBJECT_TYPE":"PAYLOAD","TIME_SYSTEM":"UTC","APOAPSIS":"547.315","RA_OF_ASC_NODE":"262.9282","PERIOD":"95.592","MEAN_ELEMENT_THEORY":"SGP4"},{"TLE_LINE2":"2 47603  53.0527 292.8527 0000762  97.5925 262.5151 15.06390558 30334","MEAN_MOTION_DOT":"-0.00001228","ELEMENT_SET_NO":"999","RCS_SIZE":"LARGE","GP_ID":"183271257","OBJECT_ID":"2021-009BH","DECAY_DATE":null,"REV_AT_EPOCH":"3033","MEAN_ANOMALY":"262.5151","EPHEMERIS_TYPE":"0","COUNTRY_CODE":"US","MEAN_MOTION":"15.06390558","SEMIMAJOR_AXIS":"6925.377","TLE_LINE1":"1 47603U 21009BH  21234.86429035 -.00001228  00000-0 -63613-4 0  9999","CENTER_NAME":"EARTH","INCLINATION":"53.0527","PERIAPSIS":"546.715","BSTAR":"-0.00006361300000","ARG_OF_PERICENTER":"97.5925","OBJECT_NAME":"STARLINK-2008","NORAD_CAT_ID":"47603","TIME_SYSTEM":"UTC","OBJECT_TYPE":"PAYLOAD","APOAPSIS":"547.770","RA_OF_ASC_NODE":"292.8527","MEAN_ELEMENT_THEORY":"SGP4","PERIOD":"95.593","EPOCH":"2021-08-22T20:44:34.686240","SITE":"AFETR","MEAN_MOTION_DDOT":"0.0000000000000","REF_FRAME":"TEME","FILE":"3101563","CLASSIFICATION_TYPE":"U","LAUNCH_DATE":"2021-02-04","ECCENTRICITY":"0.00007620"},{"CENTER_NAME":"EARTH","PERIAPSIS":"547.135","BSTAR":"0.00006623900000","INCLINATION":"53.0556","MEAN_MOTION":"15.06400451","SEMIMAJOR_AXIS":"6925.347","TLE_LINE1":"1 47604U 21009BJ  21234.79332585  .00000706  00000-0  66239-4 0  9990","DECAY_DATE":null,"MEAN_ANOMALY":"355.1245","REV_AT_EPOCH":"3075","EPHEMERIS_TYPE":"0","COUNTRY_CODE":"US","MEAN_MOTION_DOT":"0.00000706","TLE_LINE2":"2 47604  53.0556 263.1803 0000111   4.9745 355.1245 15.06400451 30758","RCS_SIZE":"LARGE","ELEMENT_SET_NO":"999","OBJECT_ID":"2021-009BJ","GP_ID":"183271507","CLASSIFICATION_TYPE":"U","ECCENTRICITY":"0.00001110","LAUNCH_DATE":"2021-02-04","SITE":"AFETR","EPOCH":"2021-08-22T19:02:23.353440","REF_FRAME":"TEME","MEAN_MOTION_DDOT":"0.0000000000000","FILE":"3101563","RA_OF_ASC_NODE":"263.1803","PERIOD":"95.592","MEAN_ELEMENT_THEORY":"SGP4","ARG_OF_PERICENTER":"4.9745","NORAD_CAT_ID":"47604","OBJECT_NAME":"STARLINK-2021","OBJECT_TYPE":"PAYLOAD","TIME_SYSTEM":"UTC","APOAPSIS":"547.289"}];
